{
  "updated": "2026-07-15T13:24:53.478Z",
  "capsules": {
    "66664": {
      "name": "SOYUZ-MS 28",
      "kind": "crew",
      "family": "soyuz",
      "phase": "docked",
      "stationKey": "iss",
      "since": "2026-07-03T10:34:14.509Z",
      "distanceKm": 0,
      "altitudeKm": 427.3,
      "inclinationDeg": 51.631,
      "l1": "1 66664U 25275A   26196.12126347  .00002630  00000+0  55898-4 0  9998",
      "l2": "2 66664  51.6305 161.8506 0007251 303.7745  56.2552 15.49005161576365"
    },
    "67796": {
      "name": "CREW DRAGON 12",
      "kind": "crew",
      "family": "dragon",
      "phase": "docked",
      "stationKey": "iss",
      "since": "2026-07-03T10:34:14.509Z",
      "distanceKm": 0,
      "altitudeKm": 427.3,
      "inclinationDeg": 51.631,
      "l1": "1 67796U 26031A   26196.12126347  .00002630  00000+0  55898-4 0  9996",
      "l2": "2 67796  51.6305 161.8506 0007251 303.7745  56.2552 15.49005161576328"
    },
    "68319": {
      "name": "PROGRESS-MS 33",
      "kind": "cargo",
      "family": "progress",
      "phase": "docked",
      "stationKey": "iss",
      "since": "2026-07-10T20:18:26.588Z",
      "distanceKm": 0,
      "altitudeKm": 427.3,
      "inclinationDeg": 51.631,
      "l1": "1 68319U 26058A   26196.12126347  .00002630  00000+0  55898-4 0  9997",
      "l2": "2 68319  51.6305 161.8506 0007251 303.7745  56.2552 15.49005161576409"
    },
    "68689": {
      "name": "CYGNUS NG-24",
      "kind": "cargo",
      "family": "cygnus",
      "phase": "docked",
      "stationKey": "iss",
      "since": "2026-07-10T20:18:26.588Z",
      "distanceKm": 3.6,
      "altitudeKm": 427.3,
      "inclinationDeg": 51.631,
      "l1": "1 68689U 26079A   26195.86320301  .00003167  00000+0  65608-4 0  9992",
      "l2": "2 68689  51.6309 163.1264 0006686 296.7335  63.2969 15.49010075576046"
    },
    "68837": {
      "name": "PROGRESS-MS 34",
      "kind": "cargo",
      "family": "progress",
      "phase": "docked",
      "stationKey": "iss",
      "since": "2026-07-10T20:18:26.588Z",
      "distanceKm": 3.6,
      "altitudeKm": 427.3,
      "inclinationDeg": 51.631,
      "l1": "1 68837U 26093A   26195.86320301  .00003167  00000+0  65608-4 0  9993",
      "l2": "2 68837  51.6309 163.1264 0006686 296.7335  63.2969 15.49010075576041"
    },
    "69049": {
      "name": "TIANZHOU-10",
      "kind": "cargo",
      "family": "tianzhou",
      "phase": "docked",
      "stationKey": "css",
      "since": "2026-07-10T20:18:26.588Z",
      "distanceKm": 1.3,
      "altitudeKm": 402.6,
      "inclinationDeg": 41.469,
      "l1": "1 69049U 26102A   26195.95855556  .00001217  00000+0  19997-4 0  9999",
      "l2": "2 69049  41.4691 153.2679 0002321 300.5388  59.5220 15.58085083296972"
    },
    "69180": {
      "name": "SHENZHOU-23 (SZ-23)",
      "kind": "crew",
      "family": "shenzhou",
      "phase": "docked",
      "stationKey": "css",
      "since": "2026-07-03T10:34:14.509Z",
      "distanceKm": 1.3,
      "altitudeKm": 402.6,
      "inclinationDeg": 41.469,
      "l1": "1 69180U 26113A   26195.89445800  .00001220  00000+0  20034-4 0  9995",
      "l2": "2 69180  41.4689 153.6564 0002256 302.1088  57.9530 15.58084991296876"
    }
  },
  "events": [
    {
      "id": "68319",
      "name": "PROGRESS-MS 33",
      "kind": "cargo",
      "family": "progress",
      "stationKey": "iss",
      "event": "launched",
      "at": "2026-07-10T20:18:26.588Z"
    },
    {
      "id": "68689",
      "name": "CYGNUS NG-24",
      "kind": "cargo",
      "family": "cygnus",
      "stationKey": "iss",
      "event": "launched",
      "at": "2026-07-10T20:18:26.588Z"
    },
    {
      "id": "68837",
      "name": "PROGRESS-MS 34",
      "kind": "cargo",
      "family": "progress",
      "stationKey": "iss",
      "event": "launched",
      "at": "2026-07-10T20:18:26.588Z"
    },
    {
      "id": "69049",
      "name": "TIANZHOU-10",
      "kind": "cargo",
      "family": "tianzhou",
      "stationKey": "css",
      "event": "launched",
      "at": "2026-07-10T20:18:26.588Z"
    }
  ]
}
